IRIDIUM 39              
1 25042U 97069D   25121.86669899  .00001212  00000+0  31244-3 0  9998
2 25042  86.3940 230.9747 0020097 101.2213 259.1251 14.49160576442519
IRIDIUM 38              
1 25043U 97069E   25121.89793527  .00000886  00000+0  28636-3 0  9995
2 25043  86.3945 252.6228 0000887 157.1308 202.9929 14.38073877439564
IRIDIUM 42              
1 25077U 97077A   25121.91700574  .00000812  00000+0  27126-3 0  9996
2 25077  86.3940 258.7309 0001422  96.8397 263.2962 14.36312054434558
IRIDIUM 44              
1 25078U 97077B   25121.85735377  .00000778  00000+0  24001-3 0  9999
2 25078  86.3967 240.7946 0002969 134.0249 226.1195 14.40201970437068
IRIDIUM 45              
1 25104U 97082A   25121.88608770  .00024534  00000+0  91157-3 0  9996
2 25104  86.3582  70.3417 0122882 143.5870 217.3813 15.20497063445251
IRIDIUM 24              
1 25105U 97082B   25121.68174867  .00000906  00000+0  27010-3 0  9994
2 25105  86.3867 100.0291 0009598 223.8377 136.2062 14.42047762436515
IRIDIUM 51              
1 25262U 98018A   25121.90687617  .00055094  00000+0  13289-2 0  9995
2 25262  86.3834  78.6890 0097014  69.0996 292.0607 15.36156818440131
IRIDIUM 57              
1 25273U 98019B   25121.62046267  .00000529  00000+0  17595-3 0  9995
2 25273  86.3992 164.7667 0002219  93.7413 266.4037 14.35860791418102
